{
  "type": "FeatureCollection",
  "features": [
    {
      "type": "Feature",
      "properties": {
        "norad_id": 35614,
        "name": "COSMOS 2251 DEB",
        "group": "cosmos-2251-debris",
        "lat": -57.41760782557899,
        "lon": -171.55080064925852,
        "alt_km": 638.2840071216997,
        "timestamp": "2025-12-05T09:41:19.528798+00:00",
        "meta_object_name": "COSMOS 2251 DEB",
        "meta_object_id": "1993-036ANH",
        "meta_epoch": "2025-11-28T17:49:08.774688",
        "meta_mean_motion": 14.66804035,
        "meta_eccentricity": 0.0076739,
        "meta_inclination": 73.9598,
        "meta_ra_of_asc_node": 354.6008,
        "meta_arg_of_pericenter": 212.3283,
        "meta_mean_anomaly": 147.3173,
        "meta_ephemeris_type": 0,
        "meta_classification_type": "U",
        "meta_norad_cat_id": 35614,
        "meta_element_set_no": 999,
        "meta_rev_at_epoch": 87524,
        "meta_bstar": 0.00086232481,
        "meta_mean_motion_dot": 4.997e-05,
        "meta_mean_motion_ddot": 0,
        "tle_line1": "1 35614U 93036ANH 25332.74246267  .00004997  00000+0  86232-3 0  9995",
        "tle_line2": "2 35614  73.9598 354.6008 0076739 212.3283 147.3173 14.66804035875240"
      },
      "geometry": {
        "type": "Point",
        "coordinates": [
          -171.55080064925852,
          -57.41760782557899
        ]
      }
    },
    {
      "type": "Feature",
      "properties": {
        "norad_id": 35645,
        "name": "COSMOS 2251 DEB",
        "group": "cosmos-2251-debris",
        "lat": 13.350299975731717,
        "lon": -82.4409359704697,
        "alt_km": 744.4924442062675,
        "timestamp": "2025-12-05T09:41:19.528808+00:00",
        "meta_object_name": "COSMOS 2251 DEB",
        "meta_object_id": "1993-036ANL",
        "meta_epoch": "2025-12-01T15:12:41.070816",
        "meta_mean_motion": 14.4529454,
        "meta_eccentricity": 0.00693983,
        "meta_inclination": 73.964,
        "meta_ra_of_asc_node": 108.5275,
        "meta_arg_of_pericenter": 267.6692,
        "meta_mean_anomaly": 91.6518,
        "meta_ephemeris_type": 0,
        "meta_classification_type": "U",
        "meta_norad_cat_id": 35645,
        "meta_element_set_no": 999,
        "meta_rev_at_epoch": 86611,
        "meta_bstar": 0.0022264555,
        "meta_mean_motion_dot": 8.032e-05,
        "meta_mean_motion_ddot": 0,
        "tle_line1": "1 35645U 93036ANL 25335.63380869  .00008032  00000+0  22265-2 0  9996",
        "tle_line2": "2 35645  73.9640 108.5275 0069398 267.6692  91.6518 14.45294540866115"
      },
      "geometry": {
        "type": "Point",
        "coordinates": [
          -82.4409359704697,
          13.350299975731717
        ]
      }
    },
    {
      "type": "Feature",
      "properties": {
        "norad_id": 35646,
        "name": "COSMOS 2251 DEB",
        "group": "cosmos-2251-debris",
        "lat": -24.49592686990908,
        "lon": 60.093483723260995,
        "alt_km": 1420.2793168107992,
        "timestamp": "2025-12-05T09:41:19.528818+00:00",
        "meta_object_name": "COSMOS 2251 DEB",
        "meta_object_id": "1993-036ANM",
        "meta_epoch": "2025-12-04T12:27:05.030208",
        "meta_mean_motion": 13.40795719,
        "meta_eccentricity": 0.0457655,
        "meta_inclination": 73.8717,
        "meta_ra_of_asc_node": 69.0727,
        "meta_arg_of_pericenter": 180.5936,
        "meta_mean_anomaly": 201.9959,
        "meta_ephemeris_type": 0,
        "meta_classification_type": "U",
        "meta_norad_cat_id": 35646,
        "meta_element_set_no": 999,
        "meta_rev_at_epoch": 81748,
        "meta_bstar": 0.0021754,
        "meta_mean_motion_dot": 2.2e-05,
        "meta_mean_motion_ddot": 0,
        "tle_line1": "1 35646U 93036ANM 25338.51880822  .00002200  00000+0  21754-2 0  9994",
        "tle_line2": "2 35646  73.8717  69.0727 0457655 180.5936 201.9959 13.40795719817483"
      },
      "geometry": {
        "type": "Point",
        "coordinates": [
          60.093483723260995,
          -24.49592686990908
        ]
      }
    },
    {
      "type": "Feature",
      "properties": {
        "norad_id": 35647,
        "name": "COSMOS 2251 DEB",
        "group": "cosmos-2251-debris",
        "lat": -66.38188970796385,
        "lon": -92.71893630178137,
        "alt_km": 770.4094187189576,
        "timestamp": "2025-12-05T09:41:19.528829+00:00",
        "meta_object_name": "COSMOS 2251 DEB",
        "meta_object_id": "1993-036ANN",
        "meta_epoch": "2025-11-30T05:16:45.601536",
        "meta_mean_motion": 14.43522503,
        "meta_eccentricity": 0.00448795,
        "meta_inclination": 74.0228,
        "meta_ra_of_asc_node": 317.854,
        "meta_arg_of_pericenter": 60.3211,
        "meta_mean_anomaly": 300.2402,
        "meta_ephemeris_type": 0,
        "meta_classification_type": "U",
        "meta_norad_cat_id": 35647,
        "meta_element_set_no": 999,
        "meta_rev_at_epoch": 67483,
        "meta_bstar": 0.00078586372,
        "meta_mean_motion_dot": 2.667e-05,
        "meta_mean_motion_ddot": 0,
        "tle_line1": "1 35647U 93036ANN 25334.21997224  .00002667  00000+0  78586-3 0  9996",
        "tle_line2": "2 35647  74.0228 317.8540 0044879  60.3211 300.2402 14.43522503674831"
      },
      "geometry": {
        "type": "Point",
        "coordinates": [
          -92.71893630178137,
          -66.38188970796385
        ]
      }
    },
    {
      "type": "Feature",
      "properties": {
        "norad_id": 35650,
        "name": "COSMOS 2251 DEB",
        "group": "cosmos-2251-debris",
        "lat": 49.1843225985577,
        "lon": -165.94129766437732,
        "alt_km": 606.545188473181,
        "timestamp": "2025-12-05T09:41:19.528840+00:00",
        "meta_object_name": "COSMOS 2251 DEB",
        "meta_object_id": "1993-036ANR",
        "meta_epoch": "2025-12-03T22:17:24.463104",
        "meta_mean_motion": 14.83248642,
        "meta_eccentricity": 0.00144448,
        "meta_inclination": 74.0473,
        "meta_ra_of_asc_node": 36.3175,
        "meta_arg_of_pericenter": 89.0711,
        "meta_mean_anomaly": 86.1716,
        "meta_ephemeris_type": 0,
        "meta_classification_type": "U",
        "meta_norad_cat_id": 35650,
        "meta_element_set_no": 999,
        "meta_rev_at_epoch": 87503,
        "meta_bstar": 0.0034549097,
        "meta_mean_motion_dot": 0.00028387,
        "meta_mean_motion_ddot": 0,
        "tle_line1": "1 35650U 93036ANR 25337.92875536  .00028387  00000+0  34549-2 0  9999",
        "tle_line2": "2 35650  74.0473  36.3175 0014444  89.0711  86.1716 14.83248642875038"
      },
      "geometry": {
        "type": "Point",
        "coordinates": [
          -165.94129766437732,
          49.1843225985577
        ]
      }
    },
    {
      "type": "Feature",
      "properties": {
        "norad_id": 35660,
        "name": "COSMOS 2251 DEB",
        "group": "cosmos-2251-debris",
        "lat": -47.80531762232556,
        "lon": -14.592013043257657,
        "alt_km": 727.168781995183,
        "timestamp": "2025-12-05T09:41:19.528850+00:00",
        "meta_object_name": "COSMOS 2251 DEB",
        "meta_object_id": "1993-036APB",
        "meta_epoch": "2025-11-30T04:59:11.152608",
        "meta_mean_motion": 14.49858309,
        "meta_eccentricity": 0.00181724,
        "meta_inclination": 74.0397,
        "meta_ra_of_asc_node": 156.7551,
        "meta_arg_of_pericenter": 306.9367,
        "meta_mean_anomaly": 174.3672,
        "meta_ephemeris_type": 0,
        "meta_classification_type": "U",
        "meta_norad_cat_id": 35660,
        "meta_element_set_no": 999,
        "meta_rev_at_epoch": 65689,
        "meta_bstar": 0.00042239347,
        "meta_mean_motion_dot": 1.607e-05,
        "meta_mean_motion_ddot": 0,
        "tle_line1": "1 35660U 93036APB 25334.20776797  .00001607  00000+0  42239-3 0  9999",
        "tle_line2": "2 35660  74.0397 156.7551 0018172 306.9367 174.3672 14.49858309656890"
      },
      "geometry": {
        "type": "Point",
        "coordinates": [
          -14.592013043257657,
          -47.80531762232556
        ]
      }
    },
    {
      "type": "Feature",
      "properties": {
        "norad_id": 35661,
        "name": "COSMOS 2251 DEB",
        "group": "cosmos-2251-debris",
        "lat": -15.751476400365943,
        "lon": 89.71237400996962,
        "alt_km": 663.5028253069058,
        "timestamp": "2025-12-05T09:41:19.528861+00:00",
        "meta_object_name": "COSMOS 2251 DEB",
        "meta_object_id": "1993-036APC",
        "meta_epoch": "2025-12-04T14:22:44.003424",
        "meta_mean_motion": 14.86330148,
        "meta_eccentricity": 0.0088994,
        "meta_inclination": 74.0134,
        "meta_ra_of_asc_node": 95.9529,
        "meta_arg_of_pericenter": 202.0903,
        "meta_mean_anomaly": 157.6434,
        "meta_ephemeris_type": 0,
        "meta_classification_type": "U",
        "meta_norad_cat_id": 35661,
        "meta_element_set_no": 999,
        "meta_rev_at_epoch": 87747,
        "meta_bstar": 0.0023699,
        "meta_mean_motion_dot": 0.00022477,
        "meta_mean_motion_ddot": 0,
        "tle_line1": "1 35661U 93036APC 25338.59912041  .00022477  00000+0  23699-2 0  9996",
        "tle_line2": "2 35661  74.0134  95.9529 0088994 202.0903 157.6434 14.86330148877476"
      },
      "geometry": {
        "type": "Point",
        "coordinates": [
          89.71237400996962,
          -15.751476400365943
        ]
      }
    }
  ]
}